start=new Date('2022-10-18T00:00:00.000Z').valueOf();
sats=[{"OBJECT_NAME":"STARLINK-4432","REV_AT_EPOCH":"130","OBJECT_TYPE":"PAYLOAD","CLASSIFICATION_TYPE":"U","COUNTRY_CODE":"US","TLE_LINE1":"1 53487U 22099Y   22290.91667824 -.00083101  00000-0 -65293-2 0  9999","BSTAR":"-0.00652930000000","ARG_OF_PERICENTER":"31.7206","ECCENTRICITY":"0.00024590","INCLINATION":"97.6580","EPOCH":"2022-10-17T22:00:00.999936","ELEMENT_SET_NO":"999","DECAY_DATE":null,"SEMIMAJOR_AXIS":"6940.932","RA_OF_ASC_NODE":"50.4606","MEAN_MOTION_DOT":"-0.00083101","SITE":"AFWTR","CENTER_NAME":"EARTH","FILE":"3620294","EPHEMERIS_TYPE":"0","TIME_SYSTEM":"UTC","MEAN_ANOMALY":"104.2603","TLE_LINE2":"2 53487  97.6580  50.4606 0002459  31.7206 104.2603 15.01329581  1309","GP_ID":"215451926","REF_FRAME":"TEME","OBJECT_ID":"2022-099Y","PERIAPSIS":"561.091","NORAD_CAT_ID":"53487","MEAN_MOTION_DDOT":"0.0000000000000","LAUNCH_DATE":"2022-08-12","MEAN_ELEMENT_THEORY":"SGP4","RCS_SIZE":"LARGE","MEAN_MOTION":"15.01329581","APOAPSIS":"564.504","PERIOD":"95.915"},{"REV_AT_EPOCH":"1037","OBJECT_NAME":"STARLINK-4421","CLASSIFICATION_TYPE":"U","OBJECT_TYPE":"PAYLOAD","INCLINATION":"97.6576","ECCENTRICITY":"0.00024770","EPOCH":"2022-10-18T00:00:00.999648","ELEMENT_SET_NO":"999","ARG_OF_PERICENTER":"28.0002","BSTAR":"-0.00638340000000","COUNTRY_CODE":"US","TLE_LINE1":"1 53488U 22099Z   22291.00001157 -.00081226  00000-0 -63834-2 0  9997","SITE":"AFWTR","MEAN_MOTION_DOT":"-0.00081226","FILE":"3620169","TIME_SYSTEM":"UTC","CENTER_NAME":"EARTH","EPHEMERIS_TYPE":"0","DECAY_DATE":null,"RA_OF_ASC_NODE":"50.5365","SEMIMAJOR_AXIS":"6940.990","OBJECT_ID":"2022-099Z","REF_FRAME":"TEME","MEAN_ANOMALY":"168.1543","GP_ID":"215424598","TLE_LINE2":"2 53488  97.6576  50.5365 0002477  28.0002 168.1543 15.01310771 10371","MEAN_MOTION_DDOT":"0.0000000000000","NORAD_CAT_ID":"53488","PERIAPSIS":"561.136","RCS_SIZE":"LARGE","MEAN_ELEMENT_THEORY":"SGP4","LAUNCH_DATE":"2022-08-12","PERIOD":"95.916","APOAPSIS":"564.575","MEAN_MOTION":"15.01310771"},{"PERIAPSIS":"560.916","MEAN_MOTION_DDOT":"0.0000000000000","NORAD_CAT_ID":"53489","GP_ID":"215424600","TLE_LINE2":"2 53489  97.6577  50.5470 0002827  26.6578 209.5031 15.01303196 10376","MEAN_ANOMALY":"209.5031","OBJECT_ID":"2022-099AA","REF_FRAME":"TEME","APOAPSIS":"564.841","MEAN_MOTION":"15.01303196","PERIOD":"95.917","LAUNCH_DATE":"2022-08-12","RCS_SIZE":"LARGE","MEAN_ELEMENT_THEORY":"SGP4","OBJECT_TYPE":"PAYLOAD","CLASSIFICATION_TYPE":"U","OBJECT_NAME":"STARLINK-4392","REV_AT_EPOCH":"1037","RA_OF_ASC_NODE":"50.5470","SEMIMAJOR_AXIS":"6941.014","DECAY_DATE":null,"FILE":"3620169","TIME_SYSTEM":"UTC","CENTER_NAME":"EARTH","EPHEMERIS_TYPE":"0","SITE":"AFWTR","MEAN_MOTION_DOT":"-0.00067752","BSTAR":"-0.00531450000000","TLE_LINE1":"1 53489U 22099AA  22291.00001157 -.00067752  00000-0 -53145-2 0  9990","COUNTRY_CODE":"US","ECCENTRICITY":"0.00028270","EPOCH":"2022-10-18T00:00:00.999648","INCLINATION":"97.6577","ELEMENT_SET_NO":"999","ARG_OF_PERICENTER":"26.6578"},{"REV_AT_EPOCH":"1037","OBJECT_NAME":"STARLINK-4387","CLASSIFICATION_TYPE":"U","OBJECT_TYPE":"PAYLOAD","ECCENTRICITY":"0.00025820","EPOCH":"2022-10-18T00:00:00.999648","INCLINATION":"97.6572","ELEMENT_SET_NO":"999","ARG_OF_PERICENTER":"31.2851","BSTAR":"-0.00668990000000","COUNTRY_CODE":"US","TLE_LINE1":"1 53490U 22099AB  22291.00001157 -.00085106  00000-0 -66899-2 0  9995","MEAN_MOTION_DOT":"-0.00085106","SITE":"AFWTR","CENTER_NAME":"EARTH","FILE":"3620170","TIME_SYSTEM":"UTC","EPHEMERIS_TYPE":"0","DECAY_DATE":null,"RA_OF_ASC_NODE":"50.5424","SEMIMAJOR_AXIS":"6940.951","OBJECT_ID":"2022-099AB","REF_FRAME":"TEME","MEAN_ANOMALY":"184.8020","GP_ID":"215425108","TLE_LINE2":"2 53490  97.6572  50.5424 0002582  31.2851 184.8020 15.01323534 10377","NORAD_CAT_ID":"53490","MEAN_MOTION_DDOT":"0.0000000000000","PERIAPSIS":"561.024","RCS_SIZE":"LARGE","MEAN_ELEMENT_THEORY":"SGP4","LAUNCH_DATE":"2022-08-12","PERIOD":"95.915","APOAPSIS":"564.608","MEAN_MOTION":"15.01323534"},{"REV_AT_EPOCH":"130","OBJECT_NAME":"STARLINK-4450","CLASSIFICATION_TYPE":"U","OBJECT_TYPE":"PAYLOAD","ARG_OF_PERICENTER":"26.9972","EPOCH":"2022-10-17T22:00:00.999936","INCLINATION":"97.6572","ECCENTRICITY":"0.00028330","ELEMENT_SET_NO":"999","TLE_LINE1":"1 53491U 22099AC  22290.91667824 -.00083650  00000-0 -65748-2 0  9998","COUNTRY_CODE":"US","BSTAR":"-0.00657480000000","MEAN_MOTION_DOT":"-0.00083650","SITE":"AFWTR","EPHEMERIS_TYPE":"0","FILE":"3620294","TIME_SYSTEM":"UTC","CENTER_NAME":"EARTH","DECAY_DATE":null,"SEMIMAJOR_AXIS":"6940.968","RA_OF_ASC_NODE":"50.4658","REF_FRAME":"TEME","OBJECT_ID":"2022-099AC","MEAN_ANOMALY":"139.0663","TLE_LINE2":"2 53491  97.6572  50.4658 0002833  26.9972 139.0663 15.01317954  1307","GP_ID":"215451508","MEAN_MOTION_DDOT":"0.0000000000000","NORAD_CAT_ID":"53491","PERIAPSIS":"560.867","MEAN_ELEMENT_THEORY":"SGP4","RCS_SIZE":"LARGE","LAUNCH_DATE":"2022-08-12","PERIOD":"95.916","MEAN_MOTION":"15.01317954","APOAPSIS":"564.800"},{"TLE_LINE2":"2 53492  97.6559  50.4652 0002974  25.7717 118.9565 15.01296827  1309","GP_ID":"215452245","MEAN_ANOMALY":"118.9565","REF_FRAME":"TEME","OBJECT_ID":"2022-099AD","PERIAPSIS":"560.834","MEAN_MOTION_DDOT":"0.0000000000000","NORAD_CAT_ID":"53492","LAUNCH_DATE":"2022-08-12","MEAN_ELEMENT_THEORY":"SGP4","RCS_SIZE":"LARGE","MEAN_MOTION":"15.01296827","APOAPSIS":"564.963","PERIOD":"95.917","OBJECT_NAME":"STARLINK-4451","REV_AT_EPOCH":"130","OBJECT_TYPE":"PAYLOAD","CLASSIFICATION_TYPE":"U","COUNTRY_CODE":"US","TLE_LINE1":"1 53492U 22099AD  22290.91667824 -.00039436  00000-0 -30796-2 0  9997","BSTAR":"-0.00307960000000","ARG_OF_PERICENTER":"25.7717","ECCENTRICITY":"0.00029740","ELEMENT_SET_NO":"999","INCLINATION":"97.6559","EPOCH":"2022-10-17T22:00:00.999936","SEMIMAJOR_AXIS":"6941.033","RA_OF_ASC_NODE":"50.4652","DECAY_DATE":null,"FILE":"3620294","EPHEMERIS_TYPE":"0","CENTER_NAME":"EARTH","TIME_SYSTEM":"UTC","SITE":"AFWTR","MEAN_MOTION_DOT":"-0.00039436"},{"REV_AT_EPOCH":"130","OBJECT_NAME":"STARLINK-4361","CLASSIFICATION_TYPE":"U","OBJECT_TYPE":"PAYLOAD","ARG_OF_PERICENTER":"35.2708","EPOCH":"2022-10-17T22:00:00.999936","ELEMENT_SET_NO":"999","ECCENTRICITY":"0.00025780","INCLINATION":"97.6561","COUNTRY_CODE":"US","TLE_LINE1":"1 53493U 22099AE  22290.91667824 -.00057767  00000-0 -45250-2 0  9996","BSTAR":"-0.00452500000000","MEAN_MOTION_DOT":"-0.00057767","SITE":"AFWTR","TIME_SYSTEM":"UTC","FILE":"3620294","CENTER_NAME":"EARTH","EPHEMERIS_TYPE":"0","DECAY_DATE":null,"SEMIMAJOR_AXIS":"6941.031","RA_OF_ASC_NODE":"50.4661","REF_FRAME":"TEME","OBJECT_ID":"2022-099AE","MEAN_ANOMALY":"149.5105","TLE_LINE2":"2 53493  97.6561  50.4661 0002578  35.2708 149.5105 15.01297526  1306","GP_ID":"215451761","NORAD_CAT_ID":"53493","MEAN_MOTION_DDOT":"0.0000000000000","PERIAPSIS":"561.107","MEAN_ELEMENT_THEORY":"SGP4","RCS_SIZE":"LARGE","LAUNCH_DATE":"2022-08-12","PERIOD":"95.917","MEAN_MOTION":"15.01297526","APOAPSIS":"564.686"},{"CLASSIFICATION_TYPE":"U","OBJECT_TYPE":"PAYLOAD","REV_AT_EPOCH":"1038","OBJECT_NAME":"STARLINK-4340","FILE":"3620170","CENTER_NAME":"EARTH","TIME_SYSTEM":"UTC","EPHEMERIS_TYPE":"0","MEAN_MOTION_DOT":"-0.00059047","SITE":"AFWTR","SEMIMAJOR_AXIS":"6941.040","RA_OF_ASC_NODE":"50.5474","DECAY_DATE":null,"ARG_OF_PERICENTER":"32.8961","INCLINATION":"97.6562","EPOCH":"2022-10-18T00:00:00.999648","ECCENTRICITY":"0.00028200","ELEMENT_SET_NO":"999","TLE_LINE1":"1 53494U 22099AF  22291.00001157 -.00059047  00000-0 -46265-2 0  9999","COUNTRY_CODE":"US","BSTAR":"-0.00462650000000","MEAN_MOTION_DDOT":"0.0000000000000","NORAD_CAT_ID":"53494","PERIAPSIS":"560.948","REF_FRAME":"TEME","OBJECT_ID":"2022-099AF","TLE_LINE2":"2 53494  97.6562  50.5474 0002820  32.8961 213.2732 15.01294600 10388","GP_ID":"215424615","MEAN_ANOMALY":"213.2732","PERIOD":"95.917","MEAN_MOTION":"15.01294600","APOAPSIS":"564.863","MEAN_ELEMENT_THEORY":"SGP4","RCS_SIZE":"LARGE","LAUNCH_DATE":"2022-08-12"},{"DECAY_DATE":null,"SEMIMAJOR_AXIS":"6941.028","RA_OF_ASC_NODE":"50.4659","MEAN_MOTION_DOT":"-0.00047278","SITE":"AFWTR","TIME_SYSTEM":"UTC","FILE":"3620294","EPHEMERIS_TYPE":"0","CENTER_NAME":"EARTH","TLE_LINE1":"1 53495U 22099AG  22290.91667824 -.00047278  00000-0 -36969-2 0  9991","COUNTRY_CODE":"US","BSTAR":"-0.00369690000000","ARG_OF_PERICENTER":"37.7255","ELEMENT_SET_NO":"999","ECCENTRICITY":"0.00027210","EPOCH":"2022-10-17T22:00:00.999936","INCLINATION":"97.6572","OBJECT_TYPE":"PAYLOAD","CLASSIFICATION_TYPE":"U","OBJECT_NAME":"STARLINK-4429","REV_AT_EPOCH":"130","MEAN_MOTION":"15.01298689","APOAPSIS":"564.781","PERIOD":"95.917","LAUNCH_DATE":"2022-08-12","MEAN_ELEMENT_THEORY":"SGP4","RCS_SIZE":"LARGE","PERIAPSIS":"561.004","MEAN_MOTION_DDOT":"0.0000000000000","NORAD_CAT_ID":"53495","MEAN_ANOMALY":"158.3394","TLE_LINE2":"2 53495  97.6572  50.4659 0002721  37.7255 158.3394 15.01298689  1300","GP_ID":"215451927","REF_FRAME":"TEME","OBJECT_ID":"2022-099AG"},{"MEAN_ELEMENT_THEORY":"SGP4","RCS_SIZE":"LARGE","LAUNCH_DATE":"2022-08-12","PERIOD":"95.916","MEAN_MOTION":"15.01310401","APOAPSIS":"564.537","REF_FRAME":"TEME","OBJECT_ID":"2022-099AH","TLE_LINE2":"2 53496  97.6572  50.5470 0002421  34.1793 231.9642 15.01310401 10387","GP_ID":"215424609","MEAN_ANOMALY":"231.9642","NORAD_CAT_ID":"53496","MEAN_MOTION_DDOT":"0.0000000000000","PERIAPSIS":"561.176","ARG_OF_PERICENTER":"34.1793","EPOCH":"2022-10-18T00:00:00.999648","ELEMENT_SET_NO":"999","INCLINATION":"97.6572","ECCENTRICITY":"0.00024210","TLE_LINE1":"1 53496U 22099AH  22291.00001157 -.00075691  00000-0 -59435-2 0  9997","COUNTRY_CODE":"US","BSTAR":"-0.00594350000000","FILE":"3620170","TIME_SYSTEM":"UTC","CENTER_NAME":"EARTH","EPHEMERIS_TYPE":"0","SITE":"AFWTR","MEAN_MOTION_DOT":"-0.00075691","SEMIMAJOR_AXIS":"6940.991","RA_OF_ASC_NODE":"50.5470","DECAY_DATE":null,"REV_AT_EPOCH":"1038","OBJECT_NAME":"STARLINK-4465","CLASSIFICATION_TYPE":"U","OBJECT_TYPE":"PAYLOAD"}];
